STARLINK-37048          
1 68155U 26049P   26085.83336806 -.00054609  00000+0 -28587-3 0  9992
2 68155  97.2847 105.9310 0001045  88.2048  48.8138 15.80837268  3376
STARLINK-36313          
1 68156U 26049Q   26085.83336806 -.00097495  00000+0 -51326-3 0  9990
2 68156  97.2843 105.9273 0001391 129.7438   3.0066 15.80844784  3384
STARLINK-37064          
1 68157U 26049R   26085.83336806 -.00063094  00000+0 -33083-3 0  9999
2 68157  97.2841 105.9238 0000789  99.6473  24.5541 15.80830305  3377
STARLINK-37069          
1 68158U 26049S   26085.83336806 -.01925070  00000+0 -12702-1 0  9995
2 68158  97.2838 105.9334 0001769  85.7639  57.8319 15.78680733  3377
STARLINK-37053          
1 68159U 26049T   26085.83336806 -.00047827  00000+0 -25022-3 0  9991
2 68159  97.2838 105.9343 0001157 114.1581  35.6855 15.80824494  3378
STARLINK-36306          
1 68160U 26049U   26085.83336806 -.01592861  00000+0 -93058-2 0  9990
2 68160  97.2842 105.9360 0002005 108.8291  45.2162 15.81241917  3388
STARLINK-37057          
1 68161U 26049V   26085.83336806 -.00062093  00000+0 -32542-3 0  9991
2 68161  97.2842 105.9312 0001590 124.8462  16.4405 15.80835957  3373
STARLINK-37013          
1 68162U 26049W   26085.83336806 -.00009528  00000+0 -49068-4 0  9998
2 68162  97.2837 105.9429 0001591  86.8657  84.3462 15.80809081  3377
STARLINK-36958          
1 68163U 26049X   26085.83336806 -.00063441  00000+0 -33262-3 0  9991
2 68163  97.2836 105.9399 0001368 106.6805  55.9853 15.80832034  3373
STARLINK-37002          
1 68164U 26049Y   26085.83336806 -.00045845  00000+0 -23952-3 0  9995
2 68164  97.2842 105.9388 0001414  76.1575  82.2067 15.80846605  3375
STARLINK-36971          
1 68165U 26049Z   26085.83336806 -.00036108  00000+0 -18852-3 0  9991
2 68165  97.2837 105.9418 0001186 106.8653  60.0739 15.80819006  3373
STARLINK-36273          
1 68166U 26049AA  26085.83336806 -.01916975  00000+0 -13117-1 0  9999
2 68166  97.2825 105.9440 0001798  83.4965  88.2413 15.77861138  3382
