CCSDS_OMM_VERS = 2.0
CREATION_DATE  = 
ORIGINATOR     = 

OBJECT_NAME    = STARLINK-37048
OBJECT_ID      = 2026-049P
CENTER_NAME    = EARTH
REF_FRAME      = TEME
TIME_SYSTEM    = UTC
MEAN_ELEMENT_THEORY = SGP/SGP4

EPOCH          = 2026-03-26T20:00:03.000384
MEAN_MOTION    = 15.80837268
ECCENTRICITY   = .0001045
INCLINATION    = 97.2847
RA_OF_ASC_NODE = 105.9310
ARG_OF_PERICENTER = 88.2048
MEAN_ANOMALY   = 48.8138

EPHEMERIS_TYPE = 0
CLASSIFICATION_TYPE = U
NORAD_CAT_ID   = 68155
ELEMENT_SET_NO = 999
REV_AT_EPOCH   = 337
BSTAR          = -.28587E-3
MEAN_MOTION_DOT = -.54609E-3
MEAN_MOTION_DDOT = 0

CCSDS_OMM_VERS = 2.0
CREATION_DATE  = 
ORIGINATOR     = 

OBJECT_NAME    = STARLINK-36313
OBJECT_ID      = 2026-049Q
CENTER_NAME    = EARTH
REF_FRAME      = TEME
TIME_SYSTEM    = UTC
MEAN_ELEMENT_THEORY = SGP/SGP4

EPOCH          = 2026-03-26T20:00:03.000384
MEAN_MOTION    = 15.80844784
ECCENTRICITY   = .0001391
INCLINATION    = 97.2843
RA_OF_ASC_NODE = 105.9273
ARG_OF_PERICENTER = 129.7438
MEAN_ANOMALY   = 3.0066

EPHEMERIS_TYPE = 0
CLASSIFICATION_TYPE = U
NORAD_CAT_ID   = 68156
ELEMENT_SET_NO = 999
REV_AT_EPOCH   = 338
BSTAR          = -.51326E-3
MEAN_MOTION_DOT = -.97495E-3
MEAN_MOTION_DDOT = 0

CCSDS_OMM_VERS = 2.0
CREATION_DATE  = 
ORIGINATOR     = 

OBJECT_NAME    = STARLINK-37064
OBJECT_ID      = 2026-049R
CENTER_NAME    = EARTH
REF_FRAME      = TEME
TIME_SYSTEM    = UTC
MEAN_ELEMENT_THEORY = SGP/SGP4

EPOCH          = 2026-03-26T20:00:03.000384
MEAN_MOTION    = 15.80830305
ECCENTRICITY   = .0000789
INCLINATION    = 97.2841
RA_OF_ASC_NODE = 105.9238
ARG_OF_PERICENTER = 99.6473
MEAN_ANOMALY   = 24.5541

EPHEMERIS_TYPE = 0
CLASSIFICATION_TYPE = U
NORAD_CAT_ID   = 68157
ELEMENT_SET_NO = 999
REV_AT_EPOCH   = 337
BSTAR          = -.33083E-3
MEAN_MOTION_DOT = -.63094E-3
MEAN_MOTION_DDOT = 0

CCSDS_OMM_VERS = 2.0
CREATION_DATE  = 
ORIGINATOR     = 

OBJECT_NAME    = STARLINK-37069
OBJECT_ID      = 2026-049S
CENTER_NAME    = EARTH
REF_FRAME      = TEME
TIME_SYSTEM    = UTC
MEAN_ELEMENT_THEORY = SGP/SGP4

EPOCH          = 2026-03-26T20:00:03.000384
MEAN_MOTION    = 15.78680733
ECCENTRICITY   = .0001769
INCLINATION    = 97.2838
RA_OF_ASC_NODE = 105.9334
ARG_OF_PERICENTER = 85.7639
MEAN_ANOMALY   = 57.8319

EPHEMERIS_TYPE = 0
CLASSIFICATION_TYPE = U
NORAD_CAT_ID   = 68158
ELEMENT_SET_NO = 999
REV_AT_EPOCH   = 337
BSTAR          = -.12702E-1
MEAN_MOTION_DOT = -.192507E-1
MEAN_MOTION_DDOT = 0

CCSDS_OMM_VERS = 2.0
CREATION_DATE  = 
ORIGINATOR     = 

OBJECT_NAME    = STARLINK-37053
OBJECT_ID      = 2026-049T
CENTER_NAME    = EARTH
REF_FRAME      = TEME
TIME_SYSTEM    = UTC
MEAN_ELEMENT_THEORY = SGP/SGP4

EPOCH          = 2026-03-26T20:00:03.000384
MEAN_MOTION    = 15.80824494
ECCENTRICITY   = .0001157
INCLINATION    = 97.2838
RA_OF_ASC_NODE = 105.9343
ARG_OF_PERICENTER = 114.1581
MEAN_ANOMALY   = 35.6855

EPHEMERIS_TYPE = 0
CLASSIFICATION_TYPE = U
NORAD_CAT_ID   = 68159
ELEMENT_SET_NO = 999
REV_AT_EPOCH   = 337
BSTAR          = -.25022E-3
MEAN_MOTION_DOT = -.47827E-3
MEAN_MOTION_DDOT = 0

CCSDS_OMM_VERS = 2.0
CREATION_DATE  = 
ORIGINATOR     = 

OBJECT_NAME    = STARLINK-36306
OBJECT_ID      = 2026-049U
CENTER_NAME    = EARTH
REF_FRAME      = TEME
TIME_SYSTEM    = UTC
MEAN_ELEMENT_THEORY = SGP/SGP4

EPOCH          = 2026-03-26T20:00:03.000384
MEAN_MOTION    = 15.81241917
ECCENTRICITY   = .0002005
INCLINATION    = 97.2842
RA_OF_ASC_NODE = 105.9360
ARG_OF_PERICENTER = 108.8291
MEAN_ANOMALY   = 45.2162

EPHEMERIS_TYPE = 0
CLASSIFICATION_TYPE = U
NORAD_CAT_ID   = 68160
ELEMENT_SET_NO = 999
REV_AT_EPOCH   = 338
BSTAR          = -.93058E-2
MEAN_MOTION_DOT = -.1592861E-1
MEAN_MOTION_DDOT = 0

CCSDS_OMM_VERS = 2.0
CREATION_DATE  = 
ORIGINATOR     = 

OBJECT_NAME    = STARLINK-37057
OBJECT_ID      = 2026-049V
CENTER_NAME    = EARTH
REF_FRAME      = TEME
TIME_SYSTEM    = UTC
MEAN_ELEMENT_THEORY = SGP/SGP4

EPOCH          = 2026-03-26T20:00:03.000384
MEAN_MOTION    = 15.80835957
ECCENTRICITY   = .000159
INCLINATION    = 97.2842
RA_OF_ASC_NODE = 105.9312
ARG_OF_PERICENTER = 124.8462
MEAN_ANOMALY   = 16.4405

EPHEMERIS_TYPE = 0
CLASSIFICATION_TYPE = U
NORAD_CAT_ID   = 68161
ELEMENT_SET_NO = 999
REV_AT_EPOCH   = 337
BSTAR          = -.32542E-3
MEAN_MOTION_DOT = -.62093E-3
MEAN_MOTION_DDOT = 0

CCSDS_OMM_VERS = 2.0
CREATION_DATE  = 
ORIGINATOR     = 

OBJECT_NAME    = STARLINK-37013
OBJECT_ID      = 2026-049W
CENTER_NAME    = EARTH
REF_FRAME      = TEME
TIME_SYSTEM    = UTC
MEAN_ELEMENT_THEORY = SGP/SGP4

EPOCH          = 2026-03-26T20:00:03.000384
MEAN_MOTION    = 15.80809081
ECCENTRICITY   = .0001591
INCLINATION    = 97.2837
RA_OF_ASC_NODE = 105.9429
ARG_OF_PERICENTER = 86.8657
MEAN_ANOMALY   = 84.3462

EPHEMERIS_TYPE = 0
CLASSIFICATION_TYPE = U
NORAD_CAT_ID   = 68162
ELEMENT_SET_NO = 999
REV_AT_EPOCH   = 337
BSTAR          = -.49068E-4
MEAN_MOTION_DOT = -.9528E-4
MEAN_MOTION_DDOT = 0

CCSDS_OMM_VERS = 2.0
CREATION_DATE  = 
ORIGINATOR     = 

OBJECT_NAME    = STARLINK-36958
OBJECT_ID      = 2026-049X
CENTER_NAME    = EARTH
REF_FRAME      = TEME
TIME_SYSTEM    = UTC
MEAN_ELEMENT_THEORY = SGP/SGP4

EPOCH          = 2026-03-26T20:00:03.000384
MEAN_MOTION    = 15.80832034
ECCENTRICITY   = .0001368
INCLINATION    = 97.2836
RA_OF_ASC_NODE = 105.9399
ARG_OF_PERICENTER = 106.6805
MEAN_ANOMALY   = 55.9853

EPHEMERIS_TYPE = 0
CLASSIFICATION_TYPE = U
NORAD_CAT_ID   = 68163
ELEMENT_SET_NO = 999
REV_AT_EPOCH   = 337
BSTAR          = -.33262E-3
MEAN_MOTION_DOT = -.63441E-3
MEAN_MOTION_DDOT = 0

CCSDS_OMM_VERS = 2.0
CREATION_DATE  = 
ORIGINATOR     = 

OBJECT_NAME    = STARLINK-37002
OBJECT_ID      = 2026-049Y
CENTER_NAME    = EARTH
REF_FRAME      = TEME
TIME_SYSTEM    = UTC
MEAN_ELEMENT_THEORY = SGP/SGP4

EPOCH          = 2026-03-26T20:00:03.000384
MEAN_MOTION    = 15.80846605
ECCENTRICITY   = .0001414
INCLINATION    = 97.2842
RA_OF_ASC_NODE = 105.9388
ARG_OF_PERICENTER = 76.1575
MEAN_ANOMALY   = 82.2067

EPHEMERIS_TYPE = 0
CLASSIFICATION_TYPE = U
NORAD_CAT_ID   = 68164
ELEMENT_SET_NO = 999
REV_AT_EPOCH   = 337
BSTAR          = -.23952E-3
MEAN_MOTION_DOT = -.45845E-3
MEAN_MOTION_DDOT = 0

CCSDS_OMM_VERS = 2.0
CREATION_DATE  = 
ORIGINATOR     = 

OBJECT_NAME    = STARLINK-36971
OBJECT_ID      = 2026-049Z
CENTER_NAME    = EARTH
REF_FRAME      = TEME
TIME_SYSTEM    = UTC
MEAN_ELEMENT_THEORY = SGP/SGP4

EPOCH          = 2026-03-26T20:00:03.000384
MEAN_MOTION    = 15.80819006
ECCENTRICITY   = .0001186
INCLINATION    = 97.2837
RA_OF_ASC_NODE = 105.9418
ARG_OF_PERICENTER = 106.8653
MEAN_ANOMALY   = 60.0739

EPHEMERIS_TYPE = 0
CLASSIFICATION_TYPE = U
NORAD_CAT_ID   = 68165
ELEMENT_SET_NO = 999
REV_AT_EPOCH   = 337
BSTAR          = -.18852E-3
MEAN_MOTION_DOT = -.36108E-3
MEAN_MOTION_DDOT = 0

CCSDS_OMM_VERS = 2.0
CREATION_DATE  = 
ORIGINATOR     = 

OBJECT_NAME    = STARLINK-36273
OBJECT_ID      = 2026-049AA
CENTER_NAME    = EARTH
REF_FRAME      = TEME
TIME_SYSTEM    = UTC
MEAN_ELEMENT_THEORY = SGP/SGP4

EPOCH          = 2026-03-26T20:00:03.000384
MEAN_MOTION    = 15.77861138
ECCENTRICITY   = .0001798
INCLINATION    = 97.2825
RA_OF_ASC_NODE = 105.9440
ARG_OF_PERICENTER = 83.4965
MEAN_ANOMALY   = 88.2413

EPHEMERIS_TYPE = 0
CLASSIFICATION_TYPE = U
NORAD_CAT_ID   = 68166
ELEMENT_SET_NO = 999
REV_AT_EPOCH   = 338
BSTAR          = -.13117E-1
MEAN_MOTION_DOT = -.1916975E-1
MEAN_MOTION_DDOT = 0

